{
"type": "FeatureCollection",
"name": "site_parcel",
"crs": { "type": "name", "properties": { "name": "urn:ogc:def:crs:OGC:1.3:CRS84" } },
"features": [
{ "type": "Feature", "properties": { "name": "Projektareal Berg (rund 3,9 ha)", "quelle": "rekonstruiert aus Standortprofil Berg Web, Abb. 15 (BEV DKM), georeferenziert an OSM" }, "geometry": { "type": "Polygon", "coordinates": [ [ [ 17.05639004431707, 48.121703507084355 ], [ 17.056475964891316, 48.121689874216337 ], [ 17.056510049733777, 48.121705452111591 ], [ 17.05656138989406, 48.121679496544772 ], [ 17.056610710997216, 48.121710766759797 ], [ 17.056697838928471, 48.121693802224321 ], [ 17.05672567697637, 48.12171145184498 ], [ 17.056820727158186, 48.12169951002646 ], [ 17.056844494037705, 48.121714578433952 ], [ 17.056939544194542, 48.121702636517433 ], [ 17.056971617079451, 48.12172297093678 ], [ 17.057366778381247, 48.121730669435742 ], [ 17.057511699324426, 48.121746898459605 ], [ 17.057607114312386, 48.121789998276967 ], [ 17.057638556637855, 48.121774101832635 ], [ 17.057751886822174, 48.121804155706407 ], [ 17.057874009954329, 48.121789792218877 ], [ 17.05796537295959, 48.121814020434023 ], [ 17.058013455844115, 48.121786608199081 ], [ 17.058045145529384, 48.121806699071122 ], [ 17.058101860604943, 48.121774365513794 ], [ 17.058158835460283, 48.121857681494447 ], [ 17.058225112319001, 48.12179996545273 ], [ 17.058275681152942, 48.121825797074862 ], [ 17.058299908451446, 48.121811037440963 ], [ 17.058411165147394, 48.121846604966692 ], [ 17.058574421139561, 48.121843810984934 ], [ 17.058601049044782, 48.121860692485754 ], [ 17.058698328398734, 48.121850466592726 ], [ 17.058768178736852, 48.121785288387287 ], [ 17.058930377412143, 48.121862497180665 ], [ 17.059042142379539, 48.121803388418485 ], [ 17.059163370192099, 48.121880243146151 ], [ 17.059201786269689, 48.121875716754602 ], [ 17.059218236806682, 48.121886145854745 ], [ 17.059261006134463, 48.121869938802817 ], [ 17.059282443127351, 48.121883529131559 ], [ 17.059404204878263, 48.121906622707129 ], [ 17.059469598729599, 48.121881842154771 ], [ 17.059516528743806, 48.121911594013504 ], [ 17.059623221766461, 48.121902217747618 ], [ 17.059658068384504, 48.121880987943733 ], [ 17.059701959197159, 48.121908812928893 ], [ 17.059744728385486, 48.121892605698847 ], [ 17.059784341404225, 48.121917718676563 ], [ 17.059827110572932, 48.121901511416119 ], [ 17.059851877275992, 48.121917212425906 ], [ 17.0598941168045, 48.121895855939336 ], [ 17.059940653650184, 48.121925358209666 ], [ 17.059983422774103, 48.121909150891661 ], [ 17.060008189527455, 48.121924851866957 ], [ 17.060050428995417, 48.121903495323778 ], [ 17.060096965935688, 48.121932997529349 ], [ 17.060139735014818, 48.121916790153783 ], [ 17.060164501818512, 48.12193249109464 ], [ 17.060206741225915, 48.12191113449488 ], [ 17.060249086598898, 48.121937979334973 ], [ 17.060378586456544, 48.121957349715487 ], [ 17.060423470744354, 48.121940340641665 ], [ 17.060522228157208, 48.121964440152041 ], [ 17.060622356586698, 48.121890621090621 ], [ 17.060677264681541, 48.121925429694819 ], [ 17.060743960982748, 48.121884794801453 ], [ 17.060818812064188, 48.12192852129219 ], [ 17.060853128481511, 48.121902141937099 ], [ 17.060902061220311, 48.121933162315827 ], [ 17.060961612177003, 48.121899209531577 ], [ 17.061008158113577, 48.121973020345685 ], [ 17.061246758261255, 48.121991669049279 ], [ 17.061268038517635, 48.122001872202169 ], [ 17.061368173244695, 48.121938236572731 ], [ 17.06145377160874, 48.122009456609867 ], [ 17.061493334008418, 48.122011998841295 ], [ 17.061520136524564, 48.121987879869884 ], [ 17.061330546362065, 48.121619142288324 ], [ 17.061304138381374, 48.121604423714757 ], [ 17.061272747474739, 48.121618693489694 ], [ 17.061205870681135, 48.121556639781247 ], [ 17.061191128876946, 48.121567972128609 ], [ 17.061159438142138, 48.121547882139382 ], [ 17.061122584387331, 48.121576212384248 ], [ 17.061062492072157, 48.121543383279793 ], [ 17.061009561465116, 48.121578017043412 ], [ 17.060967772374966, 48.121551525188927 ], [ 17.060932926528249, 48.121572755380242 ], [ 17.060767504709858, 48.121467887087981 ], [ 17.060898773228065, 48.121366978800488 ], [ 17.060969419153007, 48.121389561778081 ], [ 17.061037663854346, 48.121370043116087 ], [ 17.061051704322555, 48.121377214806117 ], [ 17.061068810293897, 48.121364065072271 ], [ 17.061130072550473, 48.121383648319927 ], [ 17.061167872041032, 48.121354590957267 ], [ 17.06120557839099, 48.121373850804339 ], [ 17.060615120729718, 48.120208007374849 ], [ 17.056358507398397, 48.121547346727347 ], [ 17.056280568399654, 48.121597148009322 ], [ 17.056301521905088, 48.121636766706601 ], [ 17.05639004431707, 48.121703507084355 ] ] ] } }
]
}
